{
 "generated_at": "2026-07-21T07:32:50Z",
 "sources": [
  {
   "name": "CelesTrak",
   "url": "https://celestrak.org/NORAD/elements/",
   "license": "frei verfügbar; Attribution. Ursprünglich USSPACECOM/Space-Track."
  },
  {
   "name": "GCAT (J. McDowell, planet4589.org)",
   "url": "https://planet4589.org/space/gcat/",
   "license": "CC-BY 4.0"
  }
 ],
 "satellites": [
  {
   "norad": 69177,
   "name": "STRIX-7",
   "intl": "2026-112A",
   "group": "sar",
   "gcat": {
    "class": "B",
    "category": "IMG-R",
    "owner": "SYNSP",
    "state": "J"
   },
   "omm": {
    "OBJECT_NAME": "STRIX-7",
    "OBJECT_ID": "2026-112A",
    "EPOCH": "2026-07-20T21:40:09.168096",
    "MEAN_MOTION": 15.01633466,
    "ECCENTRICITY": 0.00252213,
    "INCLINATION": 44.9085,
    "RA_OF_ASC_NODE": 15.3401,
    "ARG_OF_PERICENTER": 238.6269,
    "MEAN_ANOMALY": 121.2135,
    "EPHEMERIS_TYPE": 0,
    "CLASSIFICATION_TYPE": "U",
    "NORAD_CAT_ID": 69177,
    "ELEMENT_SET_NO": 999,
    "REV_AT_EPOCH": 894,
    "BSTAR": 0.00020525651,
    "MEAN_MOTION_DOT": 0.00002489,
    "MEAN_MOTION_DDOT": 0
   }
  },
  {
   "norad": 69701,
   "name": "STRIX-8",
   "intl": "2026-146A",
   "group": "sar",
   "gcat": {
    "class": "B",
    "category": "IMG-R",
    "owner": "SYNSP",
    "state": "J"
   },
   "omm": {
    "OBJECT_NAME": "STRIX-8",
    "OBJECT_ID": "2026-146A",
    "EPOCH": "2026-07-20T17:30:02.238048",
    "MEAN_MOTION": 15.04462447,
    "ECCENTRICITY": 0.0006489,
    "INCLINATION": 41.9905,
    "RA_OF_ASC_NODE": 342.4366,
    "ARG_OF_PERICENTER": 63.3029,
    "MEAN_ANOMALY": 296.8462,
    "EPHEMERIS_TYPE": 0,
    "CLASSIFICATION_TYPE": "U",
    "NORAD_CAT_ID": 69701,
    "ELEMENT_SET_NO": 999,
    "REV_AT_EPOCH": 361,
    "BSTAR": 0.00019990768,
    "MEAN_MOTION_DOT": 0.00002654,
    "MEAN_MOTION_DDOT": 0
   }
  },
  {
   "norad": 37849,
   "name": "SUOMI NPP",
   "intl": "2011-061A",
   "group": "weather",
   "gcat": {
    "class": "C",
    "category": "MET",
    "owner": "GSFC/NOAA",
    "state": "US"
   },
   "omm": {
    "OBJECT_NAME": "SUOMI NPP",
    "OBJECT_ID": "2011-061A",
    "EPOCH": "2026-07-20T23:05:44.740896",
    "MEAN_MOTION": 14.19523455,
    "ECCENTRICITY": 0.00010419,
    "INCLINATION": 98.7956,
    "RA_OF_ASC_NODE": 142.6089,
    "ARG_OF_PERICENTER": 188.005,
    "MEAN_ANOMALY": 172.111,
    "EPHEMERIS_TYPE": 0,
    "CLASSIFICATION_TYPE": "U",
    "NORAD_CAT_ID": 37849,
    "ELEMENT_SET_NO": 999,
    "REV_AT_EPOCH": 76323,
    "BSTAR": 0.000042442628,
    "MEAN_MOTION_DOT": 4.5e-7,
    "MEAN_MOTION_DDOT": 0
   }
  },
  {
   "norad": 54754,
   "name": "SWOT",
   "intl": "2022-173A",
   "group": "resource",
   "gcat": {
    "class": "C",
    "category": "EOSCI",
    "owner": "CNES/JPL",
    "state": "F"
   },
   "omm": {
    "OBJECT_NAME": "SWOT",
    "OBJECT_ID": "2022-173A",
    "EPOCH": "2026-07-20T20:34:51.914784",
    "MEAN_MOTION": 14.00172571,
    "ECCENTRICITY": 0.0000225,
    "INCLINATION": 77.6117,
    "RA_OF_ASC_NODE": 349.8539,
    "ARG_OF_PERICENTER": 67.5415,
    "MEAN_ANOMALY": 292.576,
    "EPHEMERIS_TYPE": 0,
    "CLASSIFICATION_TYPE": "U",
    "NORAD_CAT_ID": 54754,
    "ELEMENT_SET_NO": 999,
    "REV_AT_EPOCH": 18386,
    "BSTAR": 0.000017292021,
    "MEAN_MOTION_DOT": 2.3e-7,
    "MEAN_MOTION_DDOT": 0
   }
  },
  {
   "norad": 36605,
   "name": "TANDEM-X",
   "intl": "2010-030A",
   "group": "resource",
   "gcat": {
    "class": null,
    "category": "IMG-R",
    "owner": "DLR2/EASF",
    "state": "D"
   },
   "omm": {
    "OBJECT_NAME": "TANDEM-X",
    "OBJECT_ID": "2010-030A",
    "EPOCH": "2026-07-20T10:55:30.544032",
    "MEAN_MOTION": 15.1914938,
    "ECCENTRICITY": 0.00018995,
    "INCLINATION": 97.446,
    "RA_OF_ASC_NODE": 208.6898,
    "ARG_OF_PERICENTER": 95.3384,
    "MEAN_ANOMALY": 264.8068,
    "EPHEMERIS_TYPE": 0,
    "CLASSIFICATION_TYPE": "U",
    "NORAD_CAT_ID": 36605,
    "ELEMENT_SET_NO": 999,
    "REV_AT_EPOCH": 89169,
    "BSTAR": 0.000007936673,
    "MEAN_MOTION_DOT": 0.000001,
    "MEAN_MOTION_DDOT": 0
   }
  },
  {
   "norad": 25397,
   "name": "TECHSAT 1B (GO-32)",
   "intl": "1998-043D",
   "group": "resource",
   "gcat": {
    "class": "A",
    "category": "COM",
    "owner": "TECN",
    "state": "IL"
   },
   "omm": {
    "OBJECT_NAME": "TECHSAT 1B (GO-32)",
    "OBJECT_ID": "1998-043D",
    "EPOCH": "2026-07-20T22:06:52.593120",
    "MEAN_MOTION": 14.24434052,
    "ECCENTRICITY": 0.00023065,
    "INCLINATION": 99.009,
    "RA_OF_ASC_NODE": 195.5342,
    "ARG_OF_PERICENTER": 105.8843,
    "MEAN_ANOMALY": 254.2589,
    "EPHEMERIS_TYPE": 0,
    "CLASSIFICATION_TYPE": "U",
    "NORAD_CAT_ID": 25397,
    "ELEMENT_SET_NO": 999,
    "REV_AT_EPOCH": 45613,
    "BSTAR": 0.000031066271,
    "MEAN_MOTION_DOT": 2.5e-7,
    "MEAN_MOTION_DDOT": 0
   }
  },
  {
   "norad": 25994,
   "name": "TERRA",
   "intl": "1999-068A",
   "group": "resource",
   "gcat": {
    "class": "C",
    "category": "IMG",
    "owner": "GSFC",
    "state": "US"
   },
   "omm": {
    "OBJECT_NAME": "TERRA",
    "OBJECT_ID": "1999-068A",
    "EPOCH": "2026-07-20T21:56:42.194400",
    "MEAN_MOTION": 14.61126471,
    "ECCENTRICITY": 0.00036061,
    "INCLINATION": 97.9437,
    "RA_OF_ASC_NODE": 250.1202,
    "ARG_OF_PERICENTER": 111.5815,
    "MEAN_ANOMALY": 300.9591,
    "EPHEMERIS_TYPE": 0,
    "CLASSIFICATION_TYPE": "U",
    "NORAD_CAT_ID": 25994,
    "ELEMENT_SET_NO": 999,
    "REV_AT_EPOCH": 41453,
    "BSTAR": 0.000051386552,
    "MEAN_MOTION_DOT": 0.00000208,
    "MEAN_MOTION_DDOT": 0
   }
  },
  {
   "norad": 31698,
   "name": "TERRASAR-X",
   "intl": "2007-026A",
   "group": "resource",
   "gcat": {
    "class": null,
    "category": "IMG-R",
    "owner": "DLR2/EASF",
    "state": "D"
   },
   "omm": {
    "OBJECT_NAME": "TERRASAR-X",
    "OBJECT_ID": "2007-026A",
    "EPOCH": "2026-07-20T10:55:30.587232",
    "MEAN_MOTION": 15.19149077,
    "ECCENTRICITY": 0.00016549,
    "INCLINATION": 97.4462,
    "RA_OF_ASC_NODE": 208.6875,
    "ARG_OF_PERICENTER": 86.3294,
    "MEAN_ANOMALY": 273.813,
    "EPHEMERIS_TYPE": 0,
    "CLASSIFICATION_TYPE": "U",
    "NORAD_CAT_ID": 31698,
    "ELEMENT_SET_NO": 999,
    "REV_AT_EPOCH": 5827,
    "BSTAR": 0.000023628609,
    "MEAN_MOTION_DOT": 0.00000429,
    "MEAN_MOTION_DDOT": 0
   }
  },
  {
   "norad": 33396,
   "name": "THEOS",
   "intl": "2008-049A",
   "group": "resource",
   "gcat": {
    "class": "C",
    "category": "IMG",
    "owner": "GISTDA",
    "state": "T"
   },
   "omm": {
    "OBJECT_NAME": "THEOS",
    "OBJECT_ID": "2008-049A",
    "EPOCH": "2026-07-20T22:17:03.043680",
    "MEAN_MOTION": 14.20137052,
    "ECCENTRICITY": 0.00011145,
    "INCLINATION": 98.5549,
    "RA_OF_ASC_NODE": 258.1136,
    "ARG_OF_PERICENTER": 93.8433,
    "MEAN_ANOMALY": 266.2872,
    "EPHEMERIS_TYPE": 0,
    "CLASSIFICATION_TYPE": "U",
    "NORAD_CAT_ID": 33396,
    "ELEMENT_SET_NO": 999,
    "REV_AT_EPOCH": 92275,
    "BSTAR": 0.000054022329,
    "MEAN_MOTION_DOT": 7.3e-7,
    "MEAN_MOTION_DDOT": 0
   }
  },
  {
   "norad": 55973,
   "name": "TIANMU-1 03",
   "intl": "2023-039A",
   "group": "weather",
   "gcat": {
    "class": "B",
    "category": "MET",
    "owner": "TIANMU",
    "state": "CN"
   },
   "omm": {
    "OBJECT_NAME": "TIANMU-1 03",
    "OBJECT_ID": "2023-039A",
    "EPOCH": "2026-07-20T22:16:13.082016",
    "MEAN_MOTION": 15.48148571,
    "ECCENTRICITY": 0.00020784,
    "INCLINATION": 97.5252,
    "RA_OF_ASC_NODE": 17.244,
    "ARG_OF_PERICENTER": 5.5092,
    "MEAN_ANOMALY": 354.618,
    "EPHEMERIS_TYPE": 0,
    "CLASSIFICATION_TYPE": "U",
    "NORAD_CAT_ID": 55973,
    "ELEMENT_SET_NO": 999,
    "REV_AT_EPOCH": 18605,
    "BSTAR": 0.00021457296,
    "MEAN_MOTION_DOT": 0.00011177,
    "MEAN_MOTION_DDOT": 0
   }
  }
 ]
}
